[{"OBJECT_NAME":"STARLINK-30586","OBJECT_ID":"2023-160K","EPOCH":"2026-03-09T22:00:01.999584","MEAN_MOTION":15.05382628,"ECCENTRICITY":0.00025296,"INCLINATION":43.0008,"RA_OF_ASC_NODE":79.0076,"ARG_OF_PERICENTER":239.6064,"MEAN_ANOMALY":68.6958,"EPHEMERIS_TYPE":0,"CLASSIFICATION_TYPE":"U","NORAD_CAT_ID":58084,"ELEMENT_SET_NO":999,"REV_AT_EPOCH":562,"BSTAR":0.12137098,"MEAN_MOTION_DOT":0.01932724,"MEAN_MOTION_DDOT":0},{"OBJECT_NAME":"H-2A R\/B","OBJECT_ID":"2018-084L","EPOCH":"2026-03-09T14:28:20.133120","MEAN_MOTION":15.41344491,"ECCENTRICITY":0.0025468,"INCLINATION":98.8729,"RA_OF_ASC_NODE":285.9721,"ARG_OF_PERICENTER":25.6211,"MEAN_ANOMALY":334.6287,"EPHEMERIS_TYPE":0,"CLASSIFICATION_TYPE":"U","NORAD_CAT_ID":43682,"ELEMENT_SET_NO":999,"REV_AT_EPOCH":40576,"BSTAR":0.00049941,"MEAN_MOTION_DOT":0.0002099,"MEAN_MOTION_DDOT":0}]
